STARLINK-1955           
1 47556U 21009J   26062.66668981  .00508842  11210-3  15009-2 0  9997
2 47556  53.0358 355.9531 0003238 123.1880  71.0355 15.92082896  5931
WILDTRACKCUBE-SIMBA     
1 47941U 21022K   26062.70746729  .02157101  24067-5  13982-2 0  9996
2 47941  97.3800 344.5224 0006326 129.3367 230.8482 16.17333637274882
JILIN-1 GAOFEN 3D02     
1 49005U 21061C   26062.65849361  .01260227  10802-2  12025-2 0  9991
2 49005  97.2914 143.1637 0004684 247.2078 112.8712 16.12112688259845
STARLINK-3269           
1 50194U 21125AQ  26062.64234310  .02287542  69571-2  17043-2 0  9996
2 50194  53.1988 161.4362 0010764 338.8650  21.1942 16.16349000237358
LYNK TOWER 1            
1 52162U 22033F   26062.28615411  .00620099  19984-3  73148-3 0  9996
2 52162  97.2544 167.4063 0006177 197.9591 162.1475 16.08604491220210
STARLINK-3767           
1 52376U 22045AX  26062.66668981  .01233376  77610-3  26553-2 0  9994
2 52376  53.2118 203.1086 0000688  84.4431 135.9518 15.98049137  5870
NUSAT-28 (ALICE LEE)    
1 52747U 22057R   26062.63838557  .00506615  10735-3  12644-2 0  9993
2 52747  97.4988 211.8600 0006927 289.3625  70.6901 15.95741161211084
STARLINK-6284           
1 56403U 23061AF  26062.61361483  .02297994  90985-5  52654-3 0  9991
2 56403  42.9906 174.6579 0005426 312.8642  47.1791 16.28985642156486
STARLINK-6201           
1 56486U 23064AQ  26062.66668981  .01230977  72581-3  33124-2 0  9990
2 56486  69.9967 130.8595 0003771 279.6302 108.5254 15.94328502  5868
SHIYAN-25 (SY-25)       
1 57047U 23087A   26062.65413029  .00051949  30445-5  97313-4 0  9995
2 57047  96.7155 123.7353 0012216 244.0631 115.9391 16.00965031157928
STARLINK-6151           
1 57118U 23090T   26062.62117280  .01488451  17158-2  10775-2 0  9996
2 57118  42.9696 186.0876 0016745 345.5039  14.5362 16.14974535150909
STARLINK-30210          
1 57292U 23096C   26062.59164545  .00972243  47959-3  15312-2 0  9998
2 57292  42.9625 173.8486 0026375 358.9132   1.1685 16.02385845147539
STARLINK-30232          
1 57303U 23096P   26062.55373434  .00922781  42992-3  14272-2 0  9994
2 57303  42.9711 173.6749 0024909   0.5692 359.5211 16.02753938147515
QIANKUN-1               
1 57422U 23103B   26062.54347758  .00000922  16822-5  16846-5 0  9995
2 57422  96.1902 114.4710 0032520 177.2872 182.8597 16.07670483150326
OBJECT B                
1 57425U 23104B   26062.77383637  .00338106  45785-4  97502-3 0  9993
2 57425  97.2682 151.1284 0002129 315.3760  44.7343 15.93048307147131
RUZAEVKA 390 (RS44S)    
1 61766U 24199AH  26062.62667061  .01014723  53003-3  17848-2 0  9993
2 61766  97.2867 304.4912 0001827 159.5736 200.5617 16.02152751118555
