[{"OBJECT_NAME":"STARLINK-1955","OBJECT_ID":"2021-009J","EPOCH":"2026-03-03T16:00:01.999584","MEAN_MOTION":15.92082896,"ECCENTRICITY":0.00032382,"INCLINATION":53.0358,"RA_OF_ASC_NODE":355.9531,"ARG_OF_PERICENTER":123.188,"MEAN_ANOMALY":71.0355,"EPHEMERIS_TYPE":0,"CLASSIFICATION_TYPE":"U","NORAD_CAT_ID":47556,"ELEMENT_SET_NO":999,"REV_AT_EPOCH":593,"BSTAR":0.0015009256,"MEAN_MOTION_DOT":0.00508842,"MEAN_MOTION_DDOT":0.00011209667},{"OBJECT_NAME":"WILDTRACKCUBE-SIMBA","OBJECT_ID":"2021-022K","EPOCH":"2026-03-03T16:58:45.173856","MEAN_MOTION":16.17333637,"ECCENTRICITY":0.0006326,"INCLINATION":97.38,"RA_OF_ASC_NODE":344.5224,"ARG_OF_PERICENTER":129.3367,"MEAN_ANOMALY":230.8482,"EPHEMERIS_TYPE":0,"CLASSIFICATION_TYPE":"U","NORAD_CAT_ID":47941,"ELEMENT_SET_NO":999,"REV_AT_EPOCH":27488,"BSTAR":0.0013982,"MEAN_MOTION_DOT":0.02157101,"MEAN_MOTION_DDOT":2.4067e-6},{"OBJECT_NAME":"JILIN-1 GAOFEN 3D02","OBJECT_ID":"2021-061C","EPOCH":"2026-03-03T15:48:13.847904","MEAN_MOTION":16.12112688,"ECCENTRICITY":0.00046844,"INCLINATION":97.2914,"RA_OF_ASC_NODE":143.1637,"ARG_OF_PERICENTER":247.2078,"MEAN_ANOMALY":112.8712,"EPHEMERIS_TYPE":0,"CLASSIFICATION_TYPE":"U","NORAD_CAT_ID":49005,"ELEMENT_SET_NO":999,"REV_AT_EPOCH":25984,"BSTAR":0.0012025141,"MEAN_MOTION_DOT":0.01260227,"MEAN_MOTION_DDOT":0.0010801552},{"OBJECT_NAME":"STARLINK-3269","OBJECT_ID":"2021-125AQ","EPOCH":"2026-03-03T15:24:58.443840","MEAN_MOTION":16.16349,"ECCENTRICITY":0.0010764,"INCLINATION":53.1988,"RA_OF_ASC_NODE":161.4362,"ARG_OF_PERICENTER":338.865,"MEAN_ANOMALY":21.1942,"EPHEMERIS_TYPE":0,"CLASSIFICATION_TYPE":"U","NORAD_CAT_ID":50194,"ELEMENT_SET_NO":999,"REV_AT_EPOCH":23735,"BSTAR":0.0017043255,"MEAN_MOTION_DOT":0.02287542,"MEAN_MOTION_DDOT":0.0069570601},{"OBJECT_NAME":"LYNK TOWER 1","OBJECT_ID":"2022-033F","EPOCH":"2026-03-03T06:52:03.715104","MEAN_MOTION":16.08604491,"ECCENTRICITY":0.00061772,"INCLINATION":97.2544,"RA_OF_ASC_NODE":167.4063,"ARG_OF_PERICENTER":197.9591,"MEAN_ANOMALY":162.1475,"EPHEMERIS_TYPE":0,"CLASSIFICATION_TYPE":"U","NORAD_CAT_ID":52162,"ELEMENT_SET_NO":999,"REV_AT_EPOCH":22021,"BSTAR":0.00073147776,"MEAN_MOTION_DOT":0.00620099,"MEAN_MOTION_DDOT":0.00019983797},{"OBJECT_NAME":"STARLINK-3767","OBJECT_ID":"2022-045AX","EPOCH":"2026-03-03T16:00:01.999584","MEAN_MOTION":15.98049137,"ECCENTRICITY":6.883e-5,"INCLINATION":53.2118,"RA_OF_ASC_NODE":203.1086,"ARG_OF_PERICENTER":84.4431,"MEAN_ANOMALY":135.9518,"EPHEMERIS_TYPE":0,"CLASSIFICATION_TYPE":"U","NORAD_CAT_ID":52376,"ELEMENT_SET_NO":999,"REV_AT_EPOCH":587,"BSTAR":0.0026552766,"MEAN_MOTION_DOT":0.01233376,"MEAN_MOTION_DDOT":0.00077610254},{"OBJECT_NAME":"NUSAT-28 (ALICE LEE)","OBJECT_ID":"2022-057R","EPOCH":"2026-03-03T15:19:16.513248","MEAN_MOTION":15.95741161,"ECCENTRICITY":0.00069275,"INCLINATION":97.4988,"RA_OF_ASC_NODE":211.86,"ARG_OF_PERICENTER":289.3625,"MEAN_ANOMALY":70.6901,"EPHEMERIS_TYPE":0,"CLASSIFICATION_TYPE":"U","NORAD_CAT_ID":52747,"ELEMENT_SET_NO":999,"REV_AT_EPOCH":21108,"BSTAR":0.0012644008,"MEAN_MOTION_DOT":0.00506615,"MEAN_MOTION_DDOT":0.00010734981},{"OBJECT_NAME":"STARLINK-6284","OBJECT_ID":"2023-061AF","EPOCH":"2026-03-03T14:43:36.321312","MEAN_MOTION":16.28985642,"ECCENTRICITY":0.00054267,"INCLINATION":42.9906,"RA_OF_ASC_NODE":174.6579,"ARG_OF_PERICENTER":312.8642,"MEAN_ANOMALY":47.1791,"EPHEMERIS_TYPE":0,"CLASSIFICATION_TYPE":"U","NORAD_CAT_ID":56403,"ELEMENT_SET_NO":999,"REV_AT_EPOCH":15648,"BSTAR":0.00052653785,"MEAN_MOTION_DOT":0.02297994,"MEAN_MOTION_DDOT":9.098476e-6},{"OBJECT_NAME":"STARLINK-6201","OBJECT_ID":"2023-064AQ","EPOCH":"2026-03-03T16:00:01.999584","MEAN_MOTION":15.94328502,"ECCENTRICITY":0.00037718,"INCLINATION":69.9967,"RA_OF_ASC_NODE":130.8595,"ARG_OF_PERICENTER":279.6302,"MEAN_ANOMALY":108.5254,"EPHEMERIS_TYPE":0,"CLASSIFICATION_TYPE":"U","NORAD_CAT_ID":56486,"ELEMENT_SET_NO":999,"REV_AT_EPOCH":586,"BSTAR":0.003312431,"MEAN_MOTION_DOT":0.01230977,"MEAN_MOTION_DDOT":0.00072581406},{"OBJECT_NAME":"SHIYAN-25 (SY-25)","OBJECT_ID":"2023-087A","EPOCH":"2026-03-03T15:41:56.857056","MEAN_MOTION":16.00965031,"ECCENTRICITY":0.0012216,"INCLINATION":96.7155,"RA_OF_ASC_NODE":123.7353,"ARG_OF_PERICENTER":244.0631,"MEAN_ANOMALY":115.9391,"EPHEMERIS_TYPE":0,"CLASSIFICATION_TYPE":"U","NORAD_CAT_ID":57047,"ELEMENT_SET_NO":999,"REV_AT_EPOCH":15792,"BSTAR":9.7313374e-5,"MEAN_MOTION_DOT":0.00051949,"MEAN_MOTION_DDOT":3.044498e-6},{"OBJECT_NAME":"STARLINK-6151","OBJECT_ID":"2023-090T","EPOCH":"2026-03-03T14:54:29.329920","MEAN_MOTION":16.14974535,"ECCENTRICITY":0.00167458,"INCLINATION":42.9696,"RA_OF_ASC_NODE":186.0876,"ARG_OF_PERICENTER":345.5039,"MEAN_ANOMALY":14.5362,"EPHEMERIS_TYPE":0,"CLASSIFICATION_TYPE":"U","NORAD_CAT_ID":57118,"ELEMENT_SET_NO":999,"REV_AT_EPOCH":15090,"BSTAR":0.0010774899,"MEAN_MOTION_DOT":0.01488451,"MEAN_MOTION_DDOT":0.0017158113},{"OBJECT_NAME":"STARLINK-30210","OBJECT_ID":"2023-096C","EPOCH":"2026-03-03T14:11:58.166880","MEAN_MOTION":16.02385845,"ECCENTRICITY":0.00263756,"INCLINATION":42.9625,"RA_OF_ASC_NODE":173.8486,"ARG_OF_PERICENTER":358.9132,"MEAN_ANOMALY":1.1685,"EPHEMERIS_TYPE":0,"CLASSIFICATION_TYPE":"U","NORAD_CAT_ID":57292,"ELEMENT_SET_NO":999,"REV_AT_EPOCH":14753,"BSTAR":0.001531179,"MEAN_MOTION_DOT":0.00972243,"MEAN_MOTION_DDOT":0.00047958678},{"OBJECT_NAME":"STARLINK-30232","OBJECT_ID":"2023-096P","EPOCH":"2026-03-03T13:17:22.646976","MEAN_MOTION":16.02753938,"ECCENTRICITY":0.00249093,"INCLINATION":42.9711,"RA_OF_ASC_NODE":173.6749,"ARG_OF_PERICENTER":0.5692,"MEAN_ANOMALY":359.5211,"EPHEMERIS_TYPE":0,"CLASSIFICATION_TYPE":"U","NORAD_CAT_ID":57303,"ELEMENT_SET_NO":999,"REV_AT_EPOCH":14751,"BSTAR":0.0014271572,"MEAN_MOTION_DOT":0.00922781,"MEAN_MOTION_DDOT":0.00042992215},{"OBJECT_NAME":"QIANKUN-1","OBJECT_ID":"2023-103B","EPOCH":"2026-03-03T13:02:36.462912","MEAN_MOTION":16.07670483,"ECCENTRICITY":0.003252,"INCLINATION":96.1902,"RA_OF_ASC_NODE":114.471,"ARG_OF_PERICENTER":177.2872,"MEAN_ANOMALY":182.8597,"EPHEMERIS_TYPE":0,"CLASSIFICATION_TYPE":"U","NORAD_CAT_ID":57422,"ELEMENT_SET_NO":999,"REV_AT_EPOCH":15032,"BSTAR":1.684631e-6,"MEAN_MOTION_DOT":9.22e-6,"MEAN_MOTION_DDOT":1.682212e-6},{"OBJECT_NAME":"OBJECT B","OBJECT_ID":"2023-104B","EPOCH":"2026-03-03T18:34:19.462368","MEAN_MOTION":15.93048307,"ECCENTRICITY":0.0002129,"INCLINATION":97.2682,"RA_OF_ASC_NODE":151.1284,"ARG_OF_PERICENTER":315.376,"MEAN_ANOMALY":44.7343,"EPHEMERIS_TYPE":0,"CLASSIFICATION_TYPE":"U","NORAD_CAT_ID":57425,"ELEMENT_SET_NO":999,"REV_AT_EPOCH":14713,"BSTAR":0.00097502,"MEAN_MOTION_DOT":0.00338106,"MEAN_MOTION_DDOT":4.5785e-5},{"OBJECT_NAME":"RUZAEVKA 390 (RS44S)","OBJECT_ID":"2024-199AH","EPOCH":"2026-03-03T15:02:24.340704","MEAN_MOTION":16.02152751,"ECCENTRICITY":0.00018276,"INCLINATION":97.2867,"RA_OF_ASC_NODE":304.4912,"ARG_OF_PERICENTER":159.5736,"MEAN_ANOMALY":200.5617,"EPHEMERIS_TYPE":0,"CLASSIFICATION_TYPE":"U","NORAD_CAT_ID":61766,"ELEMENT_SET_NO":999,"REV_AT_EPOCH":11855,"BSTAR":0.0017848406,"MEAN_MOTION_DOT":0.01014723,"MEAN_MOTION_DDOT":0.00053002812}]
